OBJECT_NAME,OBJECT_ID,EPOCH,MEAN_MOTION,ECCENTRICITY,INCLINATION,RA_OF_ASC_NODE,ARG_OF_PERICENTER,MEAN_ANOMALY,EPHEMERIS_TYPE,CLASSIFICATION_TYPE,NORAD_CAT_ID,ELEMENT_SET_NO,REV_AT_EPOCH,BSTAR,MEAN_MOTION_DOT,MEAN_MOTION_DDOT
LEMUR-2-ROUNDTRIPPER,2025-009DG,2026-07-08T04:25:52.604832,15.04150285,.00044129,97.7226,271.8364,80.0579,280.1144,0,U,62711,999,8078,.41778564E-3,.5736E-4,0
LEMUR-2-MYNAMEISJEFF,2025-009DH,2026-07-08T12:22:37.068384,15.04147613,.00035959,97.7283,272.5606,113.0683,247.0922,0,U,62712,999,8083,.47393219E-3,.6515E-4,0
LEMUR-2-LEIA-PHILIP,2025-052AN,2026-07-07T12:26:50.658432,14.97376769,.00048895,97.6815,80.1253,138.7865,221.3727,0,U,63246,999,7171,.17109045E-3,.193E-4,0
LEMUR-2-LIA-MARTIN,2025-052AQ,2026-07-08T12:26:25.296576,14.97990233,.00053481,97.6868,81.6147,106.5482,253.6328,0,U,63248,999,7187,.32469641E-3,.3776E-4,0
LEMUR-2-DELOITTE-1,2025-052BB,2026-07-07T16:42:14.860512,14.97747072,.00022849,97.6883,81.1366,66.1516,293.9945,0,U,63259,999,7176,.20879295E-3,.2391E-4,0
LEMUR-2-EMERSONROSE,2025-052BD,2026-07-08T10:50:41.160192,14.99248834,.00027876,97.6875,82.4785,71.9134,288.2393,0,U,63261,999,7192,.25671534E-3,.3072E-4,0
LEMUR-2-MARACHE-FRAN,2025-052BE,2026-07-08T03:29:50.895744,15.00285042,.00045302,97.6862,82.5352,284.8117,75.2604,0,U,63262,999,7190,.17142775E-3,.2088E-4,0
LEMUR-2-THEFALCONER,2025-052BG,2026-07-08T14:15:24.611904,14.97541884,.00008178,97.6848,81.6176,24.8742,335.2519,0,U,63264,999,7189,.2283564E-3,.2607E-4,0
LEMUR-2-UNTITLED-SC,2025-061A,2026-07-08T09:02:33.207072,15.13616918,.00184992,97.5647,164.5866,186.2347,173.8657,0,U,63351,999,7079,.93739387E-4,.1623E-4,0
LEMUR-2-ESPERANZA,2025-061B,2026-07-08T10:02:55.302432,15.13725278,.00181094,97.5653,164.7266,185.5129,174.5906,0,U,63352,999,7080,.1686434E-3,.2982E-4,0
LEMUR-2-KREMPEL-BRO2,2025-061C,2026-07-08T05:47:29.204736,15.14147403,.00192557,97.5701,165.1108,178.6796,181.4489,0,U,63353,999,7079,.10190871E-3,.1798E-4,0
LEMUR-2-THERMORAPTOR,2025-061D,2026-07-08T08:30:21.476736,15.14230709,.00190425,97.5705,165.3030,177.2592,182.8747,0,U,63354,999,7081,.14033278E-3,.2507E-4,0
LEMUR-2-NEUROSPICY,2025-061E,2026-07-08T09:22:22.528992,15.14350648,.00167762,97.5634,164.9487,179.7872,180.3370,0,U,63355,999,7082,.11504931E-3,.2048E-4,0
LEMUR-2-TILLINFINITY,2025-061F,2026-07-08T08:26:16.591488,15.14932926,.00183762,97.5619,165.2154,168.7103,191.4545,0,U,63356,999,7084,.1457061E-3,.2658E-4,0
LEMUR-2-KREMPEL-BRO1,2025-061G,2026-07-08T09:27:05.900256,15.14742004,.00190204,97.5619,165.1674,169.7248,190.4377,0,U,63357,999,7084,.11984389E-3,.2163E-4,0
LEMUR-2-LANGER2SPACE,2025-061H,2026-07-08T13:21:40.631328,15.14435587,.00167098,97.5622,165.1347,177.7440,182.3870,0,U,63358,999,7085,.14942583E-3,.2687E-4,0
LEMUR-2-BALTO,2025-052BH,2026-07-08T12:43:51.462336,15.00323096,.00055294,97.6931,82.8968,354.4462,5.6699,0,U,63395,999,7196,.28537336E-3,.352E-4,0
LEMUR-2-KRISH,2025-135AK,2026-07-07T19:19:12.402624,14.96405512,.00017462,97.7759,303.5424,100.4811,259.6607,0,U,64561,999,5700,.33367031E-3,.3724E-4,0
LEMUR-2-HUBBLE-4,2025-135AP,2026-07-08T05:47:18.851424,14.93670680,.00020579,97.7713,302.9011,181.8311,178.2901,0,U,64565,999,5701,.98954416E-4,.989E-5,0
LEMUR-2-SEJONG-2,2025-135BL,2026-07-08T13:31:38.906400,14.96880240,.00033443,97.7703,304.4424,248.7871,111.2994,0,U,64586,999,5714,.17687766E-3,.197E-4,0
LEMUR-2-HUBBLE-5,2025-135BT,2026-07-08T06:03:34.621920,14.94197951,.00041064,97.7733,303.5739,265.2628,94.8123,0,U,64840,999,5705,.12514207E-3,.1283E-4,0
LEMUR-2-KARENDARRELL,2025-135BU,2026-07-08T06:15:47.705184,15.00434866,.00117569,97.7694,305.4390,126.6368,233.5938,0,U,64841,999,5717,.37134604E-3,.4617E-4,0
LEMUR-2-LUCILLE-ROSE,2025-135BV,2026-07-08T13:37:40.842048,15.00436483,.00139702,97.7715,305.7812,209.6508,150.3925,0,U,65403,999,5184,.35526773E-3,.4417E-4,0
LEMUR-2-AFFIE-WAUWIE,2025-248C,2026-07-08T12:07:48.199872,15.28058168,.00085285,45.3917,359.4149,217.2941,142.7357,0,U,66295,999,3785,.5560449E-3,.15242E-3,0
OTTER SDM,2025-276N,2026-07-08T10:45:50.150304,15.20002441,.00042655,97.4201,262.5737,286.1961,73.8805,0,U,66678,999,3364,.16600431E-3,.3508E-4,0
LEMUR-2-STAS-GORBUK,2025-276W,2026-07-08T11:14:10.739904,15.19612362,.00034434,97.4237,262.6457,282.2909,77.7940,0,U,66686,999,3364,.16679452E-3,.3484E-4,0
LEMUR-2-TEODOR,2025-276DG,2026-07-08T03:58:18.284160,15.21286256,.00023367,97.4140,262.6109,95.0159,265.1344,0,U,66768,999,3363,.16134713E-3,.3538E-4,0
LEMUR-2-LAILA,2025-276DQ,2026-07-08T11:09:50.032224,15.21514802,.00029009,97.4165,263.0404,104.4551,255.7007,0,U,66776,999,3368,.1642858E-3,.3629E-4,0
LEMUR-2-CELIJO-SB-PK,2025-276DW,2026-07-08T10:45:51.673536,15.00238715,.00073499,97.5200,259.5253,80.9425,279.2630,0,U,66781,999,2581,.28407634E-3,.3499E-4,0
