LEMUR-2-ROUNDTRIPPER    
1 62711U 25009DG  26189.18463663  .00005736  00000+0  41779-3 0  9997
2 62711  97.7226 271.8364 0004412  80.0579 280.1144 15.04150285 80787
LEMUR-2-MYNAMEISJEFF    
1 62712U 25009DH  26189.51570681  .00006515  00000+0  47393-3 0  9998
2 62712  97.7283 272.5606 0003595 113.0683 247.0922 15.04147613 80835
LEMUR-2-LEIA-PHILIP     
1 63246U 25052AN  26188.51864188  .00001930  00000+0  17109-3 0  9994
2 63246  97.6815  80.1253 0004889 138.7865 221.3727 14.97376769 71714
LEMUR-2-LIA-MARTIN      
1 63248U 25052AQ  26189.51834834  .00003776  00000+0  32470-3 0  9990
2 63248  97.6868  81.6147 0005348 106.5482 253.6328 14.97990233 71871
LEMUR-2-DELOITTE-1      
1 63259U 25052BB  26188.69600533  .00002391  00000+0  20879-3 0  9999
2 63259  97.6883  81.1366 0002284  66.1516 293.9945 14.97747072 71764
LEMUR-2-EMERSONROSE     
1 63261U 25052BD  26189.45186528  .00003072  00000+0  25672-3 0  9993
2 63261  97.6875  82.4785 0002787  71.9134 288.2393 14.99248834 71921
LEMUR-2-MARACHE-FRAN    
1 63262U 25052BE  26189.14572796  .00002088  00000+0  17143-3 0  9996
2 63262  97.6862  82.5352 0004530 284.8117  75.2604 15.00285042 71905
LEMUR-2-THEFALCONER     
1 63264U 25052BG  26189.59403486  .00002607  00000+0  22836-3 0  9998
2 63264  97.6848  81.6176 0000817  24.8742 335.2519 14.97541884 71891
LEMUR-2-UNTITLED-SC     
1 63351U 25061A   26189.37677323  .00001623  00000+0  93739-4 0  9992
2 63351  97.5647 164.5866 0018499 186.2347 173.8657 15.13616918 70797
LEMUR-2-ESPERANZA       
1 63352U 25061B   26189.41869563  .00002982  00000+0  16864-3 0  9999
2 63352  97.5653 164.7266 0018109 185.5129 174.5906 15.13725278 70806
LEMUR-2-KREMPEL-BRO2    
1 63353U 25061C   26189.24131024  .00001798  00000+0  10191-3 0  9996
2 63353  97.5701 165.1108 0019255 178.6796 181.4489 15.14147403 70797
LEMUR-2-THERMORAPTOR    
1 63354U 25061D   26189.35441524  .00002507  00000+0  14033-3 0  9996
2 63354  97.5705 165.3030 0019042 177.2592 182.8747 15.14230709 70818
LEMUR-2-NEUROSPICY      
1 63355U 25061E   26189.39053853  .00002048  00000+0  11505-3 0  9996
2 63355  97.5634 164.9487 0016776 179.7872 180.3370 15.14350648 70821
LEMUR-2-TILLINFINITY    
1 63356U 25061F   26189.35158092  .00002658  00000+0  14571-3 0  9997
2 63356  97.5619 165.2154 0018376 168.7103 191.4545 15.14932926 70847
LEMUR-2-KREMPEL-BRO1    
1 63357U 25061G   26189.39381829  .00002163  00000+0  11984-3 0  9994
2 63357  97.5619 165.1674 0019020 169.7248 190.4377 15.14742004 70840
LEMUR-2-LANGER2SPACE    
1 63358U 25061H   26189.55672027  .00002687  00000+0  14943-3 0  9995
2 63358  97.5622 165.1347 0016709 177.7440 182.3870 15.14435587 70850
LEMUR-2-BALTO           
1 63395U 25052BH  26189.53045674  .00003520  00000+0  28537-3 0  9997
2 63395  97.6931  82.8968 0005529 354.4462   5.6699 15.00323096 71960
LEMUR-2-KRISH           
1 64561U 25135AK  26188.80500466  .00003724  00000+0  33367-3 0  9992
2 64561  97.7759 303.5424 0001746 100.4811 259.6607 14.96405512 57006
LEMUR-2-HUBBLE-4        
1 64565U 25135AP  26189.24119041  .00000989  00000+0  98954-4 0  9994
2 64565  97.7713 302.9011 0002057 181.8311 178.2901 14.93670680 57010
LEMUR-2-SEJONG-2        
1 64586U 25135BL  26189.56364475  .00001970  00000+0  17688-3 0  9990
2 64586  97.7703 304.4424 0003344 248.7871 111.2994 14.96880240 57142
LEMUR-2-HUBBLE-5        
1 64840U 25135BT  26189.25248405  .00001283  00000+0  12514-3 0  9993
2 64840  97.7733 303.5739 0004106 265.2628  94.8123 14.94197951 57056
LEMUR-2-KARENDARRELL    
1 64841U 25135BU  26189.26096881  .00004617  00000+0  37135-3 0  9994
2 64841  97.7694 305.4390 0011756 126.6368 233.5938 15.00434866 57173
LEMUR-2-LUCILLE-ROSE    
1 65403U 25135BV  26189.56783382  .00004417  00000+0  35527-3 0  9992
2 65403  97.7715 305.7812 0013970 209.6508 150.3925 15.00436483 51849
LEMUR-2-AFFIE-WAUWIE    
1 66295U 25248C   26189.50541898  .00015242  00000+0  55604-3 0  9991
2 66295  45.3917 359.4149 0008528 217.2941 142.7357 15.28058168 37859
OTTER SDM               
1 66678U 25276N   26189.44849711  .00003508  00000+0  16600-3 0  9990
2 66678  97.4201 262.5737 0004265 286.1961  73.8805 15.20002441 33646
LEMUR-2-STAS-GORBUK     
1 66686U 25276W   26189.46817986  .00003484  00000+0  16679-3 0  9999
2 66686  97.4237 262.6457 0003443 282.2909  77.7940 15.19612362 33640
LEMUR-2-TEODOR          
1 66768U 25276DG  26189.16548940  .00003538  00000+0  16135-3 0  9995
2 66768  97.4140 262.6109 0002336  95.0159 265.1344 15.21286256 33637
LEMUR-2-LAILA           
1 66776U 25276DQ  26189.46516241  .00003629  00000+0  16429-3 0  9993
2 66776  97.4165 263.0404 0002900 104.4551 255.7007 15.21514802 33681
LEMUR-2-CELIJO-SB-PK    
1 66781U 25276DW  26189.44851474  .00003499  00000+0  28408-3 0  9992
2 66781  97.5200 259.5253 0007349  80.9425 279.2630 15.00238715 25812
